0 ARIANE 1 DEB
1 17219U 86019BR  13283.19347486  .00001487  00000-0  46213-3 0  7169
2 17219 098.5386 062.4363 0044148 093.4366 030.7236 14.41915984404350
0 ARIANE 1 DEB
1 17219U 86019BR  13285.40305237  .00001370  00000-0  42684-3 0  7173
2 17219 098.5391 064.6460 0044094 086.9458 340.2843 14.41923031404677
0 ARIANE 1 DEB
1 17219U 86019BR  13287.63538970  .00001937  00000-0  59774-3 0  7180
2 17219 098.5396 066.8788 0043979 080.3348 048.1022 14.41931440404997
0 ARIANE 1 DEB
1 17219U 86019BR  13289.64763104  .00002454  00000-0  75377-3 0  7195
2 17219 098.5393 068.8909 0043950 074.2737 053.6034 14.41939156405283
0 ARIANE 1 DEB
1 17219U 86019BR  13292.21387881  .00002254  00000-0  69314-3 0  7200
2 17219 098.5401 071.4582 0043866 066.7148 054.8574 14.41948978405653
0 ARIANE 1 DEB
1 17219U 86019BR  13294.35164500  .00002651  00000-0  81282-3 0  7218
2 17219 098.5402 073.5970 0043768 060.3760 352.0011 14.41957933405963
